ONEWEB-0499             
1 54117U 22138E   26160.09722060  .00000008  00000+0 -13004-4 0  9995
2 54117  87.9162 306.5843 0001590  92.2234 267.9081 13.19726467175753
ONEWEB-0500             
1 54118U 22138F   26160.09957441 -.00000020  00000+0 -81228-4 0  9997
2 54118  87.9172 306.5772 0001882  99.7403 260.3943 13.19724120175769
ONEWEB-0501             
1 54119U 22138G   26160.12957970  .00000050  00000+0  93300-4 0  9994
2 54119  87.9171 306.5712 0001413  95.1040 265.0254 13.19723184175744
ONEWEB-0502             
1 54120U 22138H   26160.11536363  .00000058  00000+0  11369-3 0  9996
2 54120  87.9171 306.5627 0001635  91.1761 268.9559 13.19724023175768
ONEWEB-0503             
1 54121U 22138J   26160.10431757  .00000000  00000+0 -32341-4 0  9999
2 54121  87.9174 306.5705 0001971  90.1791 269.9568 13.19724394175755
ONEWEB-0504             
1 54122U 22138K   26159.86423600  .00000016  00000+0  69967-5 0  9990
2 54122  87.9172 306.6235 0001649  90.6228 269.5094 13.19724456175732
ONEWEB-0505             
1 54123U 22138L   26160.16435170 -.00000012  00000+0 -63133-4 0  9997
2 54123  87.9172 306.5648 0001426  90.9601 269.1695 13.19725581175756
ONEWEB-0506             
1 54124U 22138M   26160.13905411  .00000187  00000+0  43418-3 0  9999
2 54124  87.9172 306.5670 0001548  94.5683 265.5627 13.19722942175749
ONEWEB-0507             
1 54125U 22138N   26160.15960604  .00000025  00000+0  28977-4 0  9992
2 54125  87.9163 306.5755 0001619  98.0045 262.1271 13.19724348175799
ONEWEB-0508             
1 54126U 22138P   26160.15643419  .00000029  00000+0  39039-4 0  9990
2 54126  87.9163 306.5756 0001411 102.0246 258.1045 13.19723533175777
ONEWEB-0509             
1 54127U 22138Q   26160.13114029  .00000099  00000+0  21490-3 0  9997
2 54127  87.9173 306.5696 0001690  96.9371 263.1954 13.19719013175741
ONEWEB-0510             
1 54128U 22138R   26160.02604867  .00000058  00000+0  11157-3 0  9994
2 54128  87.9190 276.0624 0002408  98.8530 261.2876 13.20772088178208
ONEWEB-0511             
1 54129U 22138S   26160.12802137  .00000074  00000+0  15351-3 0  9994
2 54129  87.9169 306.5734 0001846  87.7902 272.3442 13.19725696175773
ONEWEB-0512             
1 54130U 22138T   26160.12011062  .00000073  00000+0  15099-3 0  9993
2 54130  87.9160 306.5803 0001570  89.6428 270.4885 13.19724595175745
ONEWEB-0513             
1 54131U 22138U   26160.12904733  .00000011  00000+0 -45105-5 0  9996
2 54131  87.9170 306.5236 0001427  66.0432 294.0850 13.20268367175658
ONEWEB-0514             
1 54132U 22138V   26160.13590615  .00000057  00000+0  11019-3 0  9992
2 54132  87.9173 306.5702 0001999  96.9078 263.2282 13.19724364175763
ONEWEB-0515             
1 54133U 22138W   26160.08831935  .00000002  00000+0 -26423-4 0  9997
2 54133  87.9195 276.0440 0002528 116.6587 243.4805 13.20770138178230
ONEWEB-0516             
1 54134U 22138X   26160.11063000 -.00000006  00000+0 -47463-4 0  9994
2 54134  87.9162 306.5822 0001740 100.6017 259.5312 13.19725282175768
ONEWEB-0517             
1 54135U 22138Y   26160.16591318  .00000107  00000+0  23493-3 0  9994
2 54135  87.9167 306.5630 0002002  89.6282 270.5080 13.19724534175778
ONEWEB-0518             
1 54136U 22138Z   26160.10908388  .00000030  00000+0  41722-4 0  9999
2 54136  87.9163 306.5845 0001737 102.8843 257.2484 13.19727452175769
ONEWEB-0519             
1 54137U 22138AA  26160.13434369  .00000046  00000+0  81459-4 0  9994
2 54137  87.9174 306.5699 0001969  91.8791 268.2568 13.19726221175774
ONEWEB-0520             
1 54138U 22138AB  26159.86581437  .00000001  00000+0 -30423-4 0  9999
2 54138  87.9171 306.6236 0001554  96.2098 263.9212 13.19723973175723
ONEWEB-0521             
1 54139U 22138AC  26160.12643117  .00000023  00000+0  25749-4 0  9993
2 54139  87.9174 306.5603 0002029  92.5400 267.5965 13.19725076175707
ONEWEB-0522             
1 54140U 22138AD  26160.10589773  .00000033  00000+0  49911-4 0  9998
2 54140  87.9174 306.5666 0001668  94.8951 265.2372 13.19724535175742
ONEWEB-0523             
1 54141U 22138AE  26160.07485463 -.00000015  00000+0 -69452-4 0  9990
2 54141  87.9194 276.0569 0002740 104.4895 255.6543 13.20770452178236
ONEWEB-0524             
1 54142U 22138AF  26160.06475765  .00000037  00000+0  59623-4 0  9995
2 54142  87.9191 276.0561 0002374 121.4491 238.6875 13.20770475178234
ONEWEB-0525             
1 54143U 22138AG  26160.12484806  .00000068  00000+0  13632-3 0  9992
2 54143  87.9169 306.5711 0001484 100.5236 259.6064 13.19724794175761
ONEWEB-0526             
1 54144U 22138AH  26160.15802211 -.00000005  00000+0 -45124-4 0  9995
2 54144  87.9173 306.5646 0001723 100.2944 259.8383 13.19725251175746
ONEWEB-0529             
1 54145U 22138AJ  26160.16117439 -.00000020  00000+0 -83320-4 0  9995
2 54145  87.9165 306.5736 0001592  98.0715 262.0599 13.19723915175764
ONEWEB-0531             
1 54146U 22138AK  26160.05130149  .00000064  00000+0  12476-3 0  9996
2 54146  87.9188 276.0568 0002736 110.4737 249.6690 13.20771619178232
ONEWEB-0535             
1 54147U 22138AL  26160.11852837  .00000048  00000+0  87005-4 0  9992
2 54147  87.9171 306.5658 0002156  96.6961 263.4417 13.19724931175774
