OBJECT_NAME,OBJECT_ID,EPOCH,MEAN_MOTION,ECCENTRICITY,INCLINATION,RA_OF_ASC_NODE,ARG_OF_PERICENTER,MEAN_ANOMALY,EPHEMERIS_TYPE,CLASSIFICATION_TYPE,NORAD_CAT_ID,ELEMENT_SET_NO,REV_AT_EPOCH,BSTAR,MEAN_MOTION_DOT,MEAN_MOTION_DDOT
ONEWEB-0499,2022-138E,2026-06-09T02:19:59.859840,13.19726467,.000159,87.9162,306.5843,92.2234,267.9081,0,U,54117,999,17575,-.13004E-4,.8E-7,0
ONEWEB-0500,2022-138F,2026-06-09T02:23:23.229024,13.19724120,.0001882,87.9172,306.5772,99.7403,260.3943,0,U,54118,999,17576,-.81228E-4,-.2E-6,0
ONEWEB-0501,2022-138G,2026-06-09T03:06:35.686080,13.19723184,.0001413,87.9171,306.5712,95.1040,265.0254,0,U,54119,999,17574,.933E-4,.5E-6,0
ONEWEB-0502,2022-138H,2026-06-09T02:46:07.417632,13.19724023,.0001635,87.9171,306.5627,91.1761,268.9559,0,U,54120,999,17576,.11369E-3,.58E-6,0
ONEWEB-0503,2022-138J,2026-06-09T02:30:13.038048,13.19724394,.0001971,87.9174,306.5705,90.1791,269.9568,0,U,54121,999,17575,-.32341E-4,0,0
ONEWEB-0504,2022-138K,2026-06-08T20:44:29.990400,13.19724456,.0001649,87.9172,306.6235,90.6228,269.5094,0,U,54122,999,17573,.69967E-5,.16E-6,0
ONEWEB-0505,2022-138L,2026-06-09T03:56:39.986880,13.19725581,.0001426,87.9172,306.5648,90.9601,269.1695,0,U,54123,999,17575,-.63133E-4,-.12E-6,0
ONEWEB-0506,2022-138M,2026-06-09T03:20:14.275104,13.19722942,.0001548,87.9172,306.5670,94.5683,265.5627,0,U,54124,999,17574,.43418E-3,.187E-5,0
ONEWEB-0507,2022-138N,2026-06-09T03:49:49.961856,13.19724348,.0001619,87.9163,306.5755,98.0045,262.1271,0,U,54125,999,17579,.28977E-4,.25E-6,0
ONEWEB-0508,2022-138P,2026-06-09T03:45:15.914016,13.19723533,.0001411,87.9163,306.5756,102.0246,258.1045,0,U,54126,999,17577,.39039E-4,.29E-6,0
ONEWEB-0509,2022-138Q,2026-06-09T03:08:50.521056,13.19719013,.000169,87.9173,306.5696,96.9371,263.1954,0,U,54127,999,17574,.2149E-3,.99E-6,0
ONEWEB-0510,2022-138R,2026-06-09T00:37:30.605088,13.20772088,.0002408,87.9190,276.0624,98.8530,261.2876,0,U,54128,999,17820,.11157E-3,.58E-6,0
ONEWEB-0511,2022-138S,2026-06-09T03:04:21.046368,13.19725696,.0001846,87.9169,306.5734,87.7902,272.3442,0,U,54129,999,17577,.15351E-3,.74E-6,0
ONEWEB-0512,2022-138T,2026-06-09T02:52:57.557568,13.19724595,.000157,87.9160,306.5803,89.6428,270.4885,0,U,54130,999,17574,.15099E-3,.73E-6,0
ONEWEB-0513,2022-138U,2026-06-09T03:05:49.689312,13.20268367,.0001427,87.9170,306.5236,66.0432,294.0850,0,U,54131,999,17565,-.45105E-5,.11E-6,0
ONEWEB-0514,2022-138V,2026-06-09T03:15:42.291360,13.19724364,.0001999,87.9173,306.5702,96.9078,263.2282,0,U,54132,999,17576,.11019E-3,.57E-6,0
ONEWEB-0515,2022-138W,2026-06-09T02:07:10.791840,13.20770138,.0002528,87.9195,276.0440,116.6587,243.4805,0,U,54133,999,17823,-.26423E-4,.2E-7,0
ONEWEB-0516,2022-138X,2026-06-09T02:39:18.432000,13.19725282,.000174,87.9162,306.5822,100.6017,259.5312,0,U,54134,999,17576,-.47463E-4,-.6E-7,0
ONEWEB-0517,2022-138Y,2026-06-09T03:58:54.898752,13.19724534,.0002002,87.9167,306.5630,89.6282,270.5080,0,U,54135,999,17577,.23493E-3,.107E-5,0
ONEWEB-0518,2022-138Z,2026-06-09T02:37:04.847232,13.19727452,.0001737,87.9163,306.5845,102.8843,257.2484,0,U,54136,999,17576,.41722E-4,.3E-6,0
ONEWEB-0519,2022-138AA,2026-06-09T03:13:27.294816,13.19726221,.0001969,87.9174,306.5699,91.8791,268.2568,0,U,54137,999,17577,.81459E-4,.46E-6,0
ONEWEB-0520,2022-138AB,2026-06-08T20:46:46.361568,13.19723973,.0001554,87.9171,306.6236,96.2098,263.9212,0,U,54138,999,17572,-.30423E-4,.1E-7,0
ONEWEB-0521,2022-138AC,2026-06-09T03:02:03.653088,13.19725076,.0002029,87.9174,306.5603,92.5400,267.5965,0,U,54139,999,17570,.25749E-4,.23E-6,0
ONEWEB-0522,2022-138AD,2026-06-09T02:32:29.563872,13.19724535,.0001668,87.9174,306.5666,94.8951,265.2372,0,U,54140,999,17574,.49911E-4,.33E-6,0
ONEWEB-0523,2022-138AE,2026-06-09T01:47:47.440032,13.20770452,.000274,87.9194,276.0569,104.4895,255.6543,0,U,54141,999,17823,-.69452E-4,-.15E-6,0
ONEWEB-0524,2022-138AF,2026-06-09T01:33:15.060960,13.20770475,.0002374,87.9191,276.0561,121.4491,238.6875,0,U,54142,999,17823,.59623E-4,.37E-6,0
ONEWEB-0525,2022-138AG,2026-06-09T02:59:46.872384,13.19724794,.0001484,87.9169,306.5711,100.5236,259.6064,0,U,54143,999,17576,.13632E-3,.68E-6,0
ONEWEB-0526,2022-138AH,2026-06-09T03:47:33.110304,13.19725251,.0001723,87.9173,306.5646,100.2944,259.8383,0,U,54144,999,17574,-.45124E-4,-.5E-7,0
ONEWEB-0529,2022-138AJ,2026-06-09T03:52:05.467296,13.19723915,.0001592,87.9165,306.5736,98.0715,262.0599,0,U,54145,999,17576,-.8332E-4,-.2E-6,0
ONEWEB-0531,2022-138AK,2026-06-09T01:13:52.448736,13.20771619,.0002736,87.9188,276.0568,110.4737,249.6690,0,U,54146,999,17823,.12476E-3,.64E-6,0
ONEWEB-0535,2022-138AL,2026-06-09T02:50:40.851168,13.19724931,.0002156,87.9171,306.5658,96.6961,263.4417,0,U,54147,999,17577,.87005E-4,.48E-6,0
